QZS-1R                  
1 49336U 21096A   23217.56182338 -.00000306  00000+0  00000+0 0  9992
2 49336  35.2903  95.3733 0759585 272.2550 279.0764  1.00239338  6517
